IRIDIUM 36 [-]          
1 24967U 97056C   24064.93376100  .00000702  00000+0  23205-3 0  9993
2 24967  86.4017  10.0343 0002385  86.3021 273.8449 14.36659021384824
IRIDIUM 39 [-]          
1 25042U 97069D   24064.92746058  .00000980  00000+0  25946-3 0  9996
2 25042  86.3889  52.1500 0020604  74.2117 286.1356 14.47726593381038
IRIDIUM 38 [-]          
1 25043U 97069E   24064.76477473  .00000607  00000+0  19787-3 0  9993
2 25043  86.3904  70.5342 0002115 148.5720 211.5604 14.37115798378512
IRIDIUM 42 [-]          
1 25077U 97077A   24064.76416500  .00000552  00000+0  18546-3 0  9994
2 25077  86.3904  76.1356 0002005 106.4791 253.6626 14.35409933373831
IRIDIUM 44 [-]          
1 25078U 97077B   24064.93282586  .00000653  00000+0  20445-3 0  9992
2 25078  86.3915  59.2361 0003876 107.5154 252.6468 14.39231643376183
IRIDIUM 45 [-]          
1 25104U 97082A   24064.59392706  .00011243  00000+0  67968-3 0  9994
2 25104  86.3709 271.2372 0166690 259.1480  99.0955 14.99550522381414
IRIDIUM 51 [-]          
1 25262U 98018A   24064.88996019  .00013630  00000+0  69159-3 0  9994
2 25262  86.3904 281.2304 0152060 205.3079 154.0657 15.07173866375680
